[
    {
        "Altitude(m)": 566456.008375281,
        "Argument of Periapsis(deg)": 0.0,
        "Eccentricity": 0.0,
        "Inclination(deg)": 97.0,
        "Latitude(deg)": -0.12248644189738798,
        "Longitude(deg)": -9.954324198540146,
        "Mean Anomaly(deg)": 0.0,
        "RAAN(deg)": 90.0,
        "Satellite Name": "Starlink Shell 3 1758",
        "Satellite Number": 1758,
        "Semi-Major Axis(m)": 6938478.169268562,
        "Time(s)": 0
    },
    {
        "Altitude(m)": 566376.2803913755,
        "Argument of Periapsis(deg)": -0.0003965466804030246,
        "Eccentricity": 0.0,
        "Inclination(deg)": 97.0,
        "Latitude(deg)": 0.5019126757216086,
        "Longitude(deg)": -10.07225073341177,
        "Mean Anomaly(deg)": 0.6254761977050459,
        "RAAN(deg)": 90.00010433427403,
        "Satellite Name": "Starlink Shell 3 1758",
        "Satellite Number": 1758,
        "Semi-Major Axis(m)": 6938478.169268562,
        "Time(s)": 10
    },
    {
        "Altitude(m)": 566300.8557080213,
        "Argument of Periapsis(deg)": -0.0007930933608060492,
        "Eccentricity": 0.0,
        "Inclination(deg)": 97.0,
        "Latitude(deg)": 1.126324048679433,
        "Longitude(deg)": -10.190193423989458,
        "Mean Anomaly(deg)": 1.2509523954100918,
        "RAAN(deg)": 90.00020866854803,
        "Satellite Name": "Starlink Shell 3 1758",
        "Satellite Number": 1758,
        "Semi-Major Axis(m)": 6938478.169268562,
        "Time(s)": 20
    },
    {
        "Altitude(m)": 566229.7415594014,
        "Argument of Periapsis(deg)": -0.001189640041209074,
        "Eccentricity": 0.0,
        "Inclination(deg)": 97.0,
        "Latitude(deg)": 1.7507446770954886,
        "Longitude(deg)": -10.308170338042135,
        "Mean Anomaly(deg)": 1.876428593115125,
        "RAAN(deg)": 90.00031300282203,
        "Satellite Name": "Starlink Shell 3 1758",
        "Satellite Number": 1758,
        "Semi-Major Axis(m)": 6938478.169268562,
        "Time(s)": 30
    },
    {
        "Altitude(m)": 566162.9430989007,
        "Argument of Periapsis(deg)": -0.0015861867216120985,
        "Eccentricity": 0.0,
        "Inclination(deg)": 97.0,
        "Latitude(deg)": 2.3751715587002895,
        "Longitude(deg)": -10.426199071416649,
        "Mean Anomaly(deg)": 2.501904790820171,
        "RAAN(deg)": 90.00041733709604,
        "Satellite Name": "Starlink Shell 3 1758",
        "Satellite Number": 1758,
        "Semi-Major Axis(m)": 6938478.169268562,
        "Time(s)": 40
    },
    {
        "Altitude(m)": 566100.4633998213,
        "Argument of Periapsis(deg)": -0.0019827334020151234,
        "Eccentricity": 0.0,
        "Inclination(deg)": 97.0,
        "Latitude(deg)": 2.9996016887587076,
        "Longitude(deg)": -10.544297773370804,
        "Mean Anomaly(deg)": 3.127380988525217,
        "RAAN(deg)": 90.00052167137004,
        "Satellite Name": "Starlink Shell 3 1758",
        "Satellite Number": 1758,
        "Semi-Major Axis(m)": 6938478.169268562,
        "Time(s)": 50
    },
    {
        "Altitude(m)": 566042.3034571933,
        "Argument of Periapsis(deg)": -0.002379280082418148,
        "Eccentricity": 0.0,
        "Inclination(deg)": 97.0,
        "Latitude(deg)": 3.6240320599890787,
        "Longitude(deg)": -10.66248465913071,
        "Mean Anomaly(deg)": 3.7528571862302624,
        "RAAN(deg)": 90.00062600564407,
        "Satellite Name": "Starlink Shell 3 1758",
        "Satellite Number": 1758,
        "Semi-Major Axis(m)": 6938478.169268562,
        "Time(s)": 60
    },
    {
        "Altitude(m)": 565988.4621906311,
        "Argument of Periapsis(deg)": -0.002775826762821173,
        "Eccentricity": 0.0,
        "Inclination(deg)": 97.0,
        "Latitude(deg)": 4.248459662472916,
        "Longitude(deg)": -10.780777522578484,
        "Mean Anomaly(deg)": 4.378333383935296,
        "RAAN(deg)": 90.00073033991806,
        "Satellite Name": "Starlink Shell 3 1758",
        "Satellite Number": 1758,
        "Semi-Major Axis(m)": 6938478.169268562,
        "Time(s)": 70
    },
    {
        "Altitude(m)": 565938.9364482454,
        "Argument of Periapsis(deg)": -0.003172373443224197,
        "Eccentricity": 0.0,
        "Inclination(deg)": 97.0,
        "Latitude(deg)": 4.872881483549875,
        "Longitude(deg)": -10.899194761977517,
        "Mean Anomaly(deg)": 5.003809581640342,
        "RAAN(deg)": 90.00083467419208,
        "Satellite Name": "Starlink Shell 3 1758",
        "Satellite Number": 1758,
        "Semi-Major Axis(m)": 6938478.169268562,
        "Time(s)": 80
    },
    {
        "Altitude(m)": 565893.7210116104,
        "Argument of Periapsis(deg)": -0.0035689201236272223,
        "Eccentricity": 0.0,
        "Inclination(deg)": 97.0,
        "Latitude(deg)": 5.497294507700724,
        "Longitude(deg)": -11.017754893023723,
        "Mean Anomaly(deg)": 5.629285779345401,
        "RAAN(deg)": 90.00093900846608,
        "Satellite Name": "Starlink Shell 3 1758",
        "Satellite Number": 1758,
        "Semi-Major Axis(m)": 6938478.169268562,
        "Time(s)": 90
    },
    {
        "Altitude(m)": 565852.8086017638,
        "Argument of Periapsis(deg)": -0.003965466804030247,
        "Eccentricity": 0.0,
        "Inclination(deg)": 97.0,
        "Latitude(deg)": 6.121695716412775,
        "Longitude(deg)": -11.136476062129686,
        "Mean Anomaly(deg)": 6.254761977050447,
        "RAAN(deg)": 90.00104334274009,
        "Satellite Name": "Starlink Shell 3 1758",
        "Satellite Number": 1758,
        "Semi-Major Axis(m)": 6938478.169268562,
        "Time(s)": 100
    },
    {
        "Altitude(m)": 565816.1898862795,
        "Argument of Periapsis(deg)": -0.004362013484433271,
        "Eccentricity": 0.0,
        "Inclination(deg)": 97.0,
        "Latitude(deg)": 6.746082088022618,
        "Longitude(deg)": -11.255377072852573,
        "Mean Anomaly(deg)": 6.880238174755479,
        "RAAN(deg)": 90.0011476770141,
        "Satellite Name": "Starlink Shell 3 1758",
        "Satellite Number": 1758,
        "Semi-Major Axis(m)": 6938478.169268562,
        "Time(s)": 110
    },
    {
        "Altitude(m)": 565783.8534873526,
        "Argument of Periapsis(deg)": -0.004758560164836296,
        "Eccentricity": 0.0,
        "Inclination(deg)": 97.0,
        "Latitude(deg)": 7.37045059753838,
        "Longitude(deg)": -11.374476899754256,
        "Mean Anomaly(deg)": 7.505714372460525,
        "RAAN(deg)": 90.0012520112881,
        "Satellite Name": "Starlink Shell 3 1758",
        "Satellite Number": 1758,
        "Semi-Major Axis(m)": 6938478.169268562,
        "Time(s)": 120
    },
    {
        "Altitude(m)": 565755.7859909504,
        "Argument of Periapsis(deg)": -0.005155106845239321,
        "Eccentricity": 0.0,
        "Inclination(deg)": 97.0,
        "Latitude(deg)": 7.994798216436205,
        "Longitude(deg)": -11.493794202606168,
        "Mean Anomaly(deg)": 8.131190570165572,
        "RAAN(deg)": 90.00135634556213,
        "Satellite Name": "Starlink Shell 3 1758",
        "Satellite Number": 1758,
        "Semi-Major Axis(m)": 6938478.169268562,
        "Time(s)": 130
    },
    {
        "Altitude(m)": 565731.9719569599,
        "Argument of Periapsis(deg)": -0.005551653525642346,
        "Eccentricity": 0.0,
        "Inclination(deg)": 97.0,
        "Latitude(deg)": 8.619121912425156,
        "Longitude(deg)": -11.613348353849892,
        "Mean Anomaly(deg)": 8.756666767870618,
        "RAAN(deg)": 90.00146067983613,
        "Satellite Name": "Starlink Shell 3 1758",
        "Satellite Number": 1758,
        "Semi-Major Axis(m)": 6938478.169268562,
        "Time(s)": 140
    },
    {
        "Altitude(m)": 565712.3939304039,
        "Argument of Periapsis(deg)": -0.005948200206045371,
        "Eccentricity": 0.0,
        "Inclination(deg)": 97.0,
        "Latitude(deg)": 9.243418649183003,
        "Longitude(deg)": -11.733158953608227,
        "Mean Anomaly(deg)": 9.38214296557565,
        "RAAN(deg)": 90.00156501411013,
        "Satellite Name": "Starlink Shell 3 1758",
        "Satellite Number": 1758,
        "Semi-Major Axis(m)": 6938478.169268562,
        "Time(s)": 150
    },
    {
        "Altitude(m)": 565697.0324536067,
        "Argument of Periapsis(deg)": -0.006344746886448394,
        "Eccentricity": 0.0,
        "Inclination(deg)": 97.0,
        "Latitude(deg)": 9.867685386057135,
        "Longitude(deg)": -11.853245345161053,
        "Mean Anomaly(deg)": 10.007619163280697,
        "RAAN(deg)": 90.00166934838414,
        "Satellite Name": "Starlink Shell 3 1758",
        "Satellite Number": 1758,
        "Semi-Major Axis(m)": 6938478.169268562,
        "Time(s)": 160
    },
    {
        "Altitude(m)": 565685.8660794643,
        "Argument of Periapsis(deg)": -0.00674129356685142,
        "Eccentricity": 0.0,
        "Inclination(deg)": 97.0,
        "Latitude(deg)": 10.491919077724313,
        "Longitude(deg)": -11.973627643803132,
        "Mean Anomaly(deg)": 10.633095360985742,
        "RAAN(deg)": 90.00177368265814,
        "Satellite Name": "Starlink Shell 3 1758",
        "Satellite Number": 1758,
        "Semi-Major Axis(m)": 6938478.169268562,
        "Time(s)": 170
    },
    {
        "Altitude(m)": 565678.871385605,
        "Argument of Periapsis(deg)": -0.007137840247254445,
        "Eccentricity": 0.0,
        "Inclination(deg)": 97.0,
        "Latitude(deg)": 11.116116673812117,
        "Longitude(deg)": -12.094326253382405,
        "Mean Anomaly(deg)": 11.25857155869079,
        "RAAN(deg)": 90.00187801693217,
        "Satellite Name": "Starlink Shell 3 1758",
        "Satellite Number": 1758,
        "Semi-Major Axis(m)": 6938478.169268562,
        "Time(s)": 180
    }
]